{
    "links": {
        "self": "http://www.neowsapp.com/rest/v1/neo/54073343?api_key=iIulBulltgU6a56xZRHN4H3l9WmuAYTsLGpBGhQ2"
    },
    "id": "54073343",
    "neo_reference_id": "54073343",
    "name": "(2020 UC)",
    "designation": "2020 UC",
    "nasa_jpl_url": "http://ssd.jpl.nasa.gov/sbdb.cgi?sstr=54073343",
    "absolute_magnitude_h": 27.553,
    "estimated_diameter": {
        "kilometers": {
            "estimated_diameter_min": 0.008202665,
            "estimated_diameter_max": 0.0183417166
        },
        "meters": {
            "estimated_diameter_min": 8.2026650273,
            "estimated_diameter_max": 18.3417165978
        },
        "miles": {
            "estimated_diameter_min": 0.0050968982,
            "estimated_diameter_max": 0.0113970108
        },
        "feet": {
            "estimated_diameter_min": 26.9116315283,
            "estimated_diameter_max": 60.1762374827
        }
    },
    "is_potentially_hazardous_asteroid": false,
    "close_approach_data": [
        {
            "close_approach_date": "2008-11-06",
            "close_approach_date_full": "2008-Nov-06 08:14",
            "epoch_date_close_approach": 1225959240000,
            "relative_velocity": {
                "kilometers_per_second": "8.198070935",
                "kilometers_per_hour": "29513.0553658857",
                "miles_per_hour": "18338.2648744305"
            },
            "miss_distance": {
                "astronomical": "0.0478868251",
                "lunar": "18.6279749639",
                "kilometers": "7163767.036022537",
                "miles": "4451358.4239515306"
            },
            "orbiting_body": "Mars"
        },
        {
            "close_approach_date": "2020-10-20",
            "close_approach_date_full": "2020-Oct-20 01:56",
            "epoch_date_close_approach": 1603158960000,
            "relative_velocity": {
                "kilometers_per_second": "7.8640769137",
                "kilometers_per_hour": "28310.6768894753",
                "miles_per_hour": "17591.153648352"
            },
            "miss_distance": {
                "astronomical": "0.0095231533",
                "lunar": "3.7045066337",
                "kilometers": "1424643.449363471",
                "miles": "885232.3906630598"
            },
            "orbiting_body": "Earth"
        },
        {
            "close_approach_date": "2021-04-18",
            "close_approach_date_full": "2021-Apr-18 23:08",
            "epoch_date_close_approach": 1618787280000,
            "relative_velocity": {
                "kilometers_per_second": "6.6512317656",
                "kilometers_per_hour": "23944.4343562583",
                "miles_per_hour": "14878.1403365317"
            },
            "miss_distance": {
                "astronomical": "0.3955481585",
                "lunar": "153.8682336565",
                "kilometers": "59173161.994022395",
                "miles": "36768497.885183251"
            },
            "orbiting_body": "Earth"
        },
        {
            "close_approach_date": "2025-03-24",
            "close_approach_date_full": "2025-Mar-24 21:09",
            "epoch_date_close_approach": 1742850540000,
            "relative_velocity": {
                "kilometers_per_second": "21.7910873028",
                "kilometers_per_hour": "78447.9142901783",
                "miles_per_hour": "48744.4831876944"
            },
            "miss_distance": {
                "astronomical": "0.4797570546",
                "lunar": "186.6254942394",
                "kilometers": "71770633.485633702",
                "miles": "44596203.6945290076"
            },
            "orbiting_body": "Earth"
        }
    ],
    "orbital_data": {
        "orbit_id": "1",
        "orbit_determination_date": "2020-10-17 11:42:22",
        "first_observation_date": "2020-10-16",
        "last_observation_date": "2020-10-17",
        "data_arc_in_days": 1,
        "observations_used": 15,
        "orbit_uncertainty": "7",
        "minimum_orbit_intersection": ".000820557",
        "jupiter_tisserand_invariant": "5.097",
        "epoch_osculation": "2459000.5",
        "eccentricity": ".3058692410670889",
        "semi_major_axis": "1.249205673088939",
        "inclination": "2.669150501650609",
        "ascending_node_longitude": "29.18111379684656",
        "orbital_period": "509.9755425233004",
        "perihelion_distance": ".8671120819245232",
        "perihelion_argument": "62.0494522482588",
        "aphelion_distance": "1.631299264253355",
        "perihelion_time": "2459193.093457477828",
        "mean_anomaly": "224.0451572462412",
        "mean_motion": ".7059162057434388",
        "equinox": "J2000",
        "orbit_class": {
            "orbit_class_type": "APO",
            "orbit_class_description": "Near-Earth asteroid orbits which cross the Earth’s orbit similar to that of 1862 Apollo",
            "orbit_class_range": "a (semi-major axis) > 1.0 AU; q (perihelion) < 1.017 AU"
        }
    },
    "is_sentry_object": false
}